     2.100          NAVIGATION                              RINEX VERSION / TYPE
fic2rin                                 03/20/2009 01:46:58 PGM / RUN BY / DATE
                                                            END OF HEADER
29 09  3 20  0  0  0.0  .474508851767D-06  .397903932026D-11  .000000000000D+00
     .700000000000D+02 -.878125000000D+01  .449697303126D-08  .144334185520D+01
    -.514090061188D-06  .334376329556D-02  .866316258907D-05  .515371794891D+04
     .432000000000D+06  .484287738800D-07 -.166954387646D+00 -.108033418655D-06
     .960278587069D+00  .212218750000D+03 -.134288927744D+01 -.790747223510D-08
     .239295681911D-09  .100000000000D+01  .152300000000D+04  .000000000000D+00
     .340000000000D+01  .000000000000D+00 -.884756445885D-08  .700000000000D+02
     .424806000000D+06  .400000000000D+01
30 09  3 20  0  0  0.0  .133496243507D-03  .250111042988D-11  .000000000000D+00
     .103000000000D+03 -.711250000000D+02  .473269713583D-08 -.211489124982D+00
    -.366568565369D-05  .112037636572D-01  .716187059879D-05  .515362721062D+04
     .432000000000D+06 -.134110450745D-06 -.128076025843D+01  .117346644402D-06
     .951099589504D+00  .236687500000D+03  .141367314509D+01 -.832856120372D-08
    -.500020827875D-11  .100000000000D+01  .152300000000D+04  .000000000000D+00
     .340000000000D+01  .000000000000D+00 -.791624188423D-08  .103000000000D+03
     .424806000000D+06  .400000000000D+01
31 09  3 20  0  0  0.0 -.552381388843D-04 -.113686837722D-11  .000000000000D+00
     .500000000000D+02 -.256875000000D+02  .433768068181D-08  .223944839022D+01
    -.115856528282D-05  .718915101606D-02  .382214784622D-05  .515367155457D+04
     .432000000000D+06  .109896063805D-06 -.228849682378D+01 -.670552253723D-07
     .971856820023D+00  .305625000000D+03 -.116715937527D+01 -.802854870699D-08
    -.122147945095D-09  .100000000000D+01  .152300000000D+04  .000000000000D+00
     .340000000000D+01  .000000000000D+00 -.130385160446D-07  .500000000000D+02
     .424806000000D+06  .400000000000D+01
32 09  3 20  0  0  0.0  .284688081592D-03 -.409272615798D-11  .000000000000D+00
     .300000000000D+02  .512500000000D+02  .437839666351D-08  .311333034465D+01
     .251457095146D-05  .134259742917D-01  .746734440327D-05  .515361310005D+04
     .432000000000D+06  .201165676117D-06  .198829982967D+01  .204890966415D-06
     .964681825659D+00  .232968750000D+03 -.118543135667D+01 -.773603652269D-08
    -.154649298907D-09  .100000000000D+01  .152300000000D+04  .000000000000D+00
     .240000000000D+01  .000000000000D+00 -.325962901115D-08  .300000000000D+02
     .424806000000D+06  .400000000000D+01
